[
    {
        "Altitude(m)": 612502.1988240582,
        "Argument of Periapsis(deg)": 0.0,
        "Eccentricity": 0.0,
        "Inclination(deg)": 60.0,
        "Latitude(deg)": -28.135986786135177,
        "Longitude(deg)": 147.14820402277462,
        "Mean Anomaly(deg)": -32.72730000000006,
        "RAAN(deg)": 265.0,
        "Satellite Name": "Test1 1186",
        "Satellite Number": 1186,
        "Semi-Major Axis(m)": 6980739.136638005,
        "Time(s)": 0
    },
    {
        "Altitude(m)": 612308.6468224964,
        "Argument of Periapsis(deg)": 0.00010418945913296404,
        "Eccentricity": 0.0,
        "Inclination(deg)": 60.0,
        "Latitude(deg)": -27.623042620447514,
        "Longitude(deg)": 147.50167918844585,
        "Mean Anomaly(deg)": -32.10719385453821,
        "RAAN(deg)": 264.99957995086027,
        "Satellite Name": "Test1 1186",
        "Satellite Number": 1186,
        "Semi-Major Axis(m)": 6980739.136638005,
        "Time(s)": 10
    },
    {
        "Altitude(m)": 612116.0637194001,
        "Argument of Periapsis(deg)": 0.0002083789182659281,
        "Eccentricity": 0.0,
        "Inclination(deg)": 60.0,
        "Latitude(deg)": -27.108929587372177,
        "Longitude(deg)": 147.8515031892904,
        "Mean Anomaly(deg)": -31.487087709076356,
        "RAAN(deg)": 264.99915990172053,
        "Satellite Name": "Test1 1186",
        "Satellite Number": 1186,
        "Semi-Major Axis(m)": 6980739.136638005,
        "Time(s)": 20
    },
    {
        "Altitude(m)": 611924.5191013406,
        "Argument of Periapsis(deg)": 0.00031256837739889213,
        "Eccentricity": 0.0,
        "Inclination(deg)": 60.0,
        "Latitude(deg)": -26.593682002478467,
        "Longitude(deg)": 148.19778044176059,
        "Mean Anomaly(deg)": -30.866981563614555,
        "RAAN(deg)": 264.9987398525808,
        "Satellite Name": "Test1 1186",
        "Satellite Number": 1186,
        "Semi-Major Axis(m)": 6980739.136638005,
        "Time(s)": 30
    },
    {
        "Altitude(m)": 611734.0819482775,
        "Argument of Periapsis(deg)": 0.0004167578365318562,
        "Eccentricity": 0.0,
        "Inclination(deg)": 60.0,
        "Latitude(deg)": -26.077333331989845,
        "Longitude(deg)": 148.54061364472275,
        "Mean Anomaly(deg)": -30.2468754181527,
        "RAAN(deg)": 264.99831980344106,
        "Satellite Name": "Test1 1186",
        "Satellite Number": 1186,
        "Semi-Major Axis(m)": 6980739.136638005,
        "Time(s)": 40
    },
    {
        "Altitude(m)": 611544.8206030502,
        "Argument of Periapsis(deg)": 0.0005209472956648203,
        "Eccentricity": 0.0,
        "Inclination(deg)": 60.0,
        "Latitude(deg)": -25.559916225184967,
        "Longitude(deg)": 148.88010283471655,
        "Mean Anomaly(deg)": -29.62676927269085,
        "RAAN(deg)": 264.99789975430133,
        "Satellite Name": "Test1 1186",
        "Satellite Number": 1186,
        "Semi-Major Axis(m)": 6980739.136638005,
        "Time(s)": 50
    },
    {
        "Altitude(m)": 611356.8027411511,
        "Argument of Periapsis(deg)": 0.0006251367547977843,
        "Eccentricity": 0.0,
        "Inclination(deg)": 60.0,
        "Latitude(deg)": -25.041462545696486,
        "Longitude(deg)": 149.21634595333336,
        "Mean Anomaly(deg)": -29.006663127228993,
        "RAAN(deg)": 264.99747970516154,
        "Satellite Name": "Test1 1186",
        "Satellite Number": 1186,
        "Semi-Major Axis(m)": 6980739.136638005,
        "Time(s)": 60
    },
    {
        "Altitude(m)": 611170.0953408051,
        "Argument of Periapsis(deg)": 0.0007293262139307483,
        "Eccentricity": 0.0,
        "Inclination(deg)": 60.0,
        "Latitude(deg)": -24.522003401744236,
        "Longitude(deg)": 149.5494394137817,
        "Mean Anomaly(deg)": -28.386556981767193,
        "RAAN(deg)": 264.99705965602186,
        "Satellite Name": "Test1 1186",
        "Satellite Number": 1186,
        "Semi-Major Axis(m)": 6980739.136638005,
        "Time(s)": 70
    },
    {
        "Altitude(m)": 610984.7646533315,
        "Argument of Periapsis(deg)": 0.0008335156730637124,
        "Eccentricity": 0.0,
        "Inclination(deg)": 60.0,
        "Latitude(deg)": -24.001569175337348,
        "Longitude(deg)": 149.87947715371615,
        "Mean Anomaly(deg)": -27.76645083630534,
        "RAAN(deg)": 264.99663960688207,
        "Satellite Name": "Test1 1186",
        "Satellite Number": 1186,
        "Semi-Major Axis(m)": 6980739.136638005,
        "Time(s)": 80
    },
    {
        "Altitude(m)": 610800.8761738911,
        "Argument of Periapsis(deg)": 0.0009377051321966765,
        "Eccentricity": 0.0,
        "Inclination(deg)": 60.0,
        "Latitude(deg)": -23.480189550487108,
        "Longitude(deg)": 150.20655120003389,
        "Mean Anomaly(deg)": -27.146344690843485,
        "RAAN(deg)": 264.9962195577423,
        "Satellite Name": "Test1 1186",
        "Satellite Number": 1186,
        "Semi-Major Axis(m)": 6980739.136638005,
        "Time(s)": 90
    },
    {
        "Altitude(m)": 610618.4946125238,
        "Argument of Periapsis(deg)": 0.0010418945913296407,
        "Eccentricity": 0.0,
        "Inclination(deg)": 60.0,
        "Latitude(deg)": -22.957893540463793,
        "Longitude(deg)": 150.53075223273294,
        "Mean Anomaly(deg)": -26.526238545381634,
        "RAAN(deg)": 264.99579950860254,
        "Satellite Name": "Test1 1186",
        "Satellite Number": 1186,
        "Semi-Major Axis(m)": 6980739.136638005,
        "Time(s)": 100
    },
    {
        "Altitude(m)": 610437.6838655878,
        "Argument of Periapsis(deg)": 0.0011460840504626045,
        "Eccentricity": 0.0,
        "Inclination(deg)": 60.0,
        "Latitude(deg)": -22.434709514130898,
        "Longitude(deg)": 150.85216863493287,
        "Mean Anomaly(deg)": -25.90613239991983,
        "RAAN(deg)": 264.9953794594628,
        "Satellite Name": "Test1 1186",
        "Satellite Number": 1186,
        "Semi-Major Axis(m)": 6980739.136638005,
        "Time(s)": 110
    },
    {
        "Altitude(m)": 610258.5069875512,
        "Argument of Periapsis(deg)": 0.0012502735095955685,
        "Eccentricity": 0.0,
        "Inclination(deg)": 60.0,
        "Latitude(deg)": -21.91066522139533,
        "Longitude(deg)": 151.1708870547848,
        "Mean Anomaly(deg)": -25.28602625445798,
        "RAAN(deg)": 264.9949594103231,
        "Satellite Name": "Test1 1186",
        "Satellite Number": 1186,
        "Semi-Major Axis(m)": 6980739.136638005,
        "Time(s)": 120
    },
    {
        "Altitude(m)": 610081.0261631736,
        "Argument of Periapsis(deg)": 0.0013544629687285324,
        "Eccentricity": 0.0,
        "Inclination(deg)": 60.0,
        "Latitude(deg)": -21.385787817805706,
        "Longitude(deg)": 151.4869929663844,
        "Mean Anomaly(deg)": -24.66592010899623,
        "RAAN(deg)": 264.99453936118334,
        "Satellite Name": "Test1 1186",
        "Satellite Number": 1186,
        "Semi-Major Axis(m)": 6980739.136638005,
        "Time(s)": 130
    },
    {
        "Altitude(m)": 609905.3026801086,
        "Argument of Periapsis(deg)": 0.0014586524278614966,
        "Eccentricity": 0.0,
        "Inclination(deg)": 60.0,
        "Latitude(deg)": -20.860103888327973,
        "Longitude(deg)": 151.80056971680716,
        "Mean Anomaly(deg)": -24.045813963534375,
        "RAAN(deg)": 264.9941193120436,
        "Satellite Name": "Test1 1186",
        "Satellite Number": 1186,
        "Semi-Major Axis(m)": 6980739.136638005,
        "Time(s)": 140
    },
    {
        "Altitude(m)": 609731.3969018955,
        "Argument of Periapsis(deg)": 0.0015628418869944607,
        "Eccentricity": 0.0,
        "Inclination(deg)": 60.0,
        "Latitude(deg)": -20.333639470336944,
        "Longitude(deg)": 152.11169908500702,
        "Mean Anomaly(deg)": -23.425707818072574,
        "RAAN(deg)": 264.9936992629039,
        "Satellite Name": "Test1 1186",
        "Satellite Number": 1186,
        "Semi-Major Axis(m)": 6980739.136638005,
        "Time(s)": 150
    },
    {
        "Altitude(m)": 609559.3682414079,
        "Argument of Periapsis(deg)": 0.0016670313461274247,
        "Eccentricity": 0.0,
        "Inclination(deg)": 60.0,
        "Latitude(deg)": -19.806420075850056,
        "Longitude(deg)": 152.42046183970848,
        "Mean Anomaly(deg)": -22.80560167261072,
        "RAAN(deg)": 264.99327921376414,
        "Satellite Name": "Test1 1186",
        "Satellite Number": 1186,
        "Semi-Major Axis(m)": 6980739.136638005,
        "Time(s)": 160
    },
    {
        "Altitude(m)": 609389.2751347431,
        "Argument of Periapsis(deg)": 0.0017712208052603888,
        "Eccentricity": 0.0,
        "Inclination(deg)": 60.0,
        "Latitude(deg)": -19.278470713033837,
        "Longitude(deg)": 152.72693678342253,
        "Mean Anomaly(deg)": -22.185495527148966,
        "RAAN(deg)": 264.99285916462435,
        "Satellite Name": "Test1 1186",
        "Satellite Number": 1186,
        "Semi-Major Axis(m)": 6980739.136638005,
        "Time(s)": 170
    },
    {
        "Altitude(m)": 609221.1750155498,
        "Argument of Periapsis(deg)": 0.001875410264393353,
        "Eccentricity": 0.0,
        "Inclination(deg)": 60.0,
        "Latitude(deg)": -18.74981590701511,
        "Longitude(deg)": 153.03120130834083,
        "Mean Anomaly(deg)": -21.565389381687112,
        "RAAN(deg)": 264.9924391154846,
        "Satellite Name": "Test1 1186",
        "Satellite Number": 1186,
        "Semi-Major Axis(m)": 6980739.136638005,
        "Time(s)": 180
    },
    {
        "Altitude(m)": 609055.1242898519,
        "Argument of Periapsis(deg)": 0.0019795997235263173,
        "Eccentricity": 0.0,
        "Inclination(deg)": 60.0,
        "Latitude(deg)": -18.220479720025015,
        "Longitude(deg)": 153.33333195124598,
        "Mean Anomaly(deg)": -20.94528323622531,
        "RAAN(deg)": 264.9920190663449,
        "Satellite Name": "Test1 1186",
        "Satellite Number": 1186,
        "Semi-Major Axis(m)": 6980739.136638005,
        "Time(s)": 190
    }
]